{"type": "FeatureCollection", "features": [ {"type": "Feature", "properties": {"norad_id": 31752, "name": "FENGYUN 1C DEB", "group": "fengyun-1c-debris", "lat": 73.0607062390731, "lon": -90.61175545715315, "alt_km": 1059.7055092430383, "timestamp": "2025-12-11T07:02:24.014299+00:00", "meta": {"OBJECT_NAME": "FENGYUN 1C DEB", "OBJECT_ID": "1999-025CFB", "EPOCH": "2025-11-28T11:42:46.096128", "MEAN_MOTION": 13.92945252, "ECCENTRICITY": 0.0356614, "INCLINATION": 98.9794, "RA_OF_ASC_NODE": 45.6633, "ARG_OF_PERICENTER": 12.9266, "MEAN_ANOMALY": 348.0748, "EPHEMERIS_TYPE": 0, "CLASSIFICATION_TYPE": "U", "NORAD_CAT_ID": 31752, "ELEMENT_SET_NO": 999, "REV_AT_EPOCH": 93392, "BSTAR": 0.0012622162, "MEAN_MOTION_DOT": 2.723e-05, "MEAN_MOTION_DDOT": 0}, "tle": {"line1": "1 31752U 99025CFB 25332.48803352  .00002723  00000+0  12622-2 0  9999", "line2": "2 31752  98.9794  45.6633 0356614  12.9266 348.0748 13.92945252933926"}}, "geometry": {"type": "Point", "coordinates": [-90.61175545715315, 73.0607062390731]}}, {"type": "Feature", "properties": {"norad_id": 31753, "name": "FENGYUN 1C DEB", "group": "fengyun-1c-debris", "lat": -54.13823218261281, "lon": -173.68177624482846, "alt_km": 773.3519341888523, "timestamp": "2025-12-11T07:02:24.014309+00:00", "meta": {"OBJECT_NAME": "FENGYUN 1C DEB", "OBJECT_ID": "1999-025CFC", "EPOCH": "2025-12-10T01:18:33.226272", "MEAN_MOTION": 14.18631258, "ECCENTRICITY": 0.01589595, "INCLINATION": 98.6327, "RA_OF_ASC_NODE": 17.2437, "ARG_OF_PERICENTER": 181.5018, "MEAN_ANOMALY": 208.9772, "EPHEMERIS_TYPE": 0, "CLASSIFICATION_TYPE": "U", "NORAD_CAT_ID": 31753, "ELEMENT_SET_NO": 999, "REV_AT_EPOCH": 95981, "BSTAR": 0.00046159825, "MEAN_MOTION_DOT": 1.042e-05, "MEAN_MOTION_DDOT": 0}, "tle": {"line1": "1 31753U 99025CFC 25344.05455123  .00001042  00000+0  46160-3 0  9993", "line2": "2 31753  98.6327  17.2437 0158959 181.5018 208.9772 14.18631258959817"}}, "geometry": {"type": "Point", "coordinates": [-173.68177624482846, -54.13823218261281]}}, {"type": "Feature", "properties": {"norad_id": 31754, "name": "FENGYUN 1C DEB", "group": "fengyun-1c-debris", "lat": -23.021502822225674, "lon": 126.62142870431677, "alt_km": 723.3032355808082, "timestamp": "2025-12-11T07:02:24.014319+00:00", "meta": {"OBJECT_NAME": "FENGYUN 1C DEB", "OBJECT_ID": "1999-025CFD", "EPOCH": "2025-12-10T15:06:45.972000", "MEAN_MOTION": 14.42236775, "ECCENTRICITY": 0.0049196, "INCLINATION": 99.0405, "RA_OF_ASC_NODE": 309.7979, "ARG_OF_PERICENTER": 224.2074, "MEAN_ANOMALY": 135.5179, "EPHEMERIS_TYPE": 0, "CLASSIFICATION_TYPE": "U", "NORAD_CAT_ID": 31754, "ELEMENT_SET_NO": 999, "REV_AT_EPOCH": 96959, "BSTAR": 0.0016594, "MEAN_MOTION_DOT": 5.504e-05, "MEAN_MOTION_DDOT": 0}, "tle": {"line1": "1 31754U 99025CFD 25344.62969875  .00005504  00000+0  16594-2 0  9995", "line2": "2 31754  99.0405 309.7979 0049196 224.2074 135.5179 14.42236775969593"}}, "geometry": {"type": "Point", "coordinates": [126.62142870431677, -23.021502822225674]}}, {"type": "Feature", "properties": {"norad_id": 31757, "name": "FENGYUN 1C DEB", "group": "fengyun-1c-debris", "lat": 27.347021832253045, "lon": 2.8260828109059104, "alt_km": 784.5611173934522, "timestamp": "2025-12-11T07:02:24.014329+00:00", "meta": {"OBJECT_NAME": "FENGYUN 1C DEB", "OBJECT_ID": "1999-025CFG", "EPOCH": "2025-12-10T07:01:55.738272", "MEAN_MOTION": 14.07915605, "ECCENTRICITY": 0.0217958, "INCLINATION": 98.7682, "RA_OF_ASC_NODE": 6.432, "ARG_OF_PERICENTER": 90.9407, "MEAN_ANOMALY": 271.6741, "EPHEMERIS_TYPE": 0, "CLASSIFICATION_TYPE": "U", "NORAD_CAT_ID": 31757, "ELEMENT_SET_NO": 999, "REV_AT_EPOCH": 63847, "BSTAR": 0.00035867, "MEAN_MOTION_DOT": 7.16e-06, "MEAN_MOTION_DDOT": 0}, "tle": {"line1": "1 31757U 99025CFG 25344.29300623  .00000716  00000+0  35867-3 0  9996", "line2": "2 31757  98.7682   6.4320 0217958  90.9407 271.6741 14.07915605638475"}}, "geometry": {"type": "Point", "coordinates": [2.8260828109059104, 27.347021832253045]}}, {"type": "Feature", "properties": {"norad_id": 31758, "name": "FENGYUN 1C DEB", "group": "fengyun-1c-debris", "lat": 81.65195018410606, "lon": -110.59956351710962, "alt_km": 517.7596688881322, "timestamp": "2025-12-11T07:02:24.014339+00:00", "meta": {"OBJECT_NAME": "FENGYUN 1C DEB", "OBJECT_ID": "1999-025CFH", "EPOCH": "2025-12-09T11:19:45.178752", "MEAN_MOTION": 14.418924, "ECCENTRICITY": 0.03185097, "INCLINATION": 98.0605, "RA_OF_ASC_NODE": 352.7233, "ARG_OF_PERICENTER": 100.1746, "MEAN_ANOMALY": 263.5525, "EPHEMERIS_TYPE": 0, "CLASSIFICATION_TYPE": "U", "NORAD_CAT_ID": 31758, "ELEMENT_SET_NO": 999, "REV_AT_EPOCH": 94153, "BSTAR": 0.0026701195, "MEAN_MOTION_DOT": 0.00016114, "MEAN_MOTION_DDOT": 0}, "tle": {"line1": "1 31758U 99025CFH 25343.47205068  .00016114  00000+0  26701-2 0  9998", "line2": "2 31758  98.0605 352.7233 0318509 100.1746 263.5525 14.41892400941537"}}, "geometry": {"type": "Point", "coordinates": [-110.59956351710962, 81.65195018410606]}}, {"type": "Feature", "properties": {"norad_id": 31760, "name": "FENGYUN 1C DEB", "group": "fengyun-1c-debris", "lat": 27.537255277548653, "lon": -92.25161671853647, "alt_km": 765.2443586056515, "timestamp": "2025-12-11T07:02:24.014351+00:00", "meta": {"OBJECT_NAME": "FENGYUN 1C DEB", "OBJECT_ID": "1999-025CFK", "EPOCH": "2025-12-10T11:51:31.582656", "MEAN_MOTION": 14.30163927, "ECCENTRICITY": 0.00527424, "INCLINATION": 99.2539, "RA_OF_ASC_NODE": 82.0228, "ARG_OF_PERICENTER": 203.6838, "MEAN_ANOMALY": 156.1914, "EPHEMERIS_TYPE": 0, "CLASSIFICATION_TYPE": "U", "NORAD_CAT_ID": 31760, "ELEMENT_SET_NO": 999, "REV_AT_EPOCH": 96100, "BSTAR": 0.0011974016, "MEAN_MOTION_DOT": 3.098e-05, "MEAN_MOTION_DDOT": 0}, "tle": {"line1": "1 31760U 99025CFK 25344.49411554  .00003098  00000+0  11974-2 0  9996", "line2": "2 31760  99.2539  82.0228 0052742 203.6838 156.1914 14.30163927961007"}}, "geometry": {"type": "Point", "coordinates": [-92.25161671853647, 27.537255277548653]}}, {"type": "Feature", "properties": {"norad_id": 31761, "name": "FENGYUN 1C DEB", "group": "fengyun-1c-debris", "lat": 41.59799188635381, "lon": 36.99018183688763, "alt_km": 1088.326901114493, "timestamp": "2025-12-11T07:02:24.014361+00:00", "meta": {"OBJECT_NAME": "FENGYUN 1C DEB", "OBJECT_ID": "1999-025CFL", "EPOCH": "2025-12-10T08:05:44.697696", "MEAN_MOTION": 14.03384413, "ECCENTRICITY": 0.04726643, "INCLINATION": 98.6334, "RA_OF_ASC_NODE": 208.3272, "ARG_OF_PERICENTER": 270.2187, "MEAN_ANOMALY": 84.4846, "EPHEMERIS_TYPE": 0, "CLASSIFICATION_TYPE": "U", "NORAD_CAT_ID": 31761, "ELEMENT_SET_NO": 999, "REV_AT_EPOCH": 58077, "BSTAR": 0.0032051311, "MEAN_MOTION_DOT": 0.00013668, "MEAN_MOTION_DDOT": 0}, "tle": {"line1": "1 31761U 99025CFL 25344.33732289  .00013668  00000+0  32051-2 0  9994", "line2": "2 31761  98.6334 208.3272 0472664 270.2187  84.4846 14.03384413580775"}}, "geometry": {"type": "Point", "coordinates": [36.99018183688763, 41.59799188635381]}}, {"type": "Feature", "properties": {"norad_id": 31763, "name": "FENGYUN 1C DEB", "group": "fengyun-1c-debris", "lat": 81.4732234682615, "lon": 2.9484270639226313, "alt_km": 671.5760682525915, "timestamp": "2025-12-11T07:02:24.014371+00:00", "meta": {"OBJECT_NAME": "FENGYUN 1C DEB", "OBJECT_ID": "1999-025CFN", "EPOCH": "2025-12-10T18:52:37.804224", "MEAN_MOTION": 13.50321507, "ECCENTRICITY": 0.05471082, "INCLINATION": 98.5206, "RA_OF_ASC_NODE": 93.4575, "ARG_OF_PERICENTER": 74.6618, "MEAN_ANOMALY": 71.4867, "EPHEMERIS_TYPE": 0, "CLASSIFICATION_TYPE": "U", "NORAD_CAT_ID": 31763, "ELEMENT_SET_NO": 999, "REV_AT_EPOCH": 90979, "BSTAR": 0.00098435852, "MEAN_MOTION_DOT": 1.58e-05, "MEAN_MOTION_DDOT": 0}, "tle": {"line1": "1 31763U 99025CFN 25344.78654866  .00001580  00000+0  98436-3 0  9999", "line2": "2 31763  98.5206  93.4575 0547108  74.6618  71.4867 13.50321507909796"}}, "geometry": {"type": "Point", "coordinates": [2.9484270639226313, 81.4732234682615]}}, {"type": "Feature", "properties": {"norad_id": 31766, "name": "FENGYUN 1C DEB", "group": "fengyun-1c-debris", "lat": 31.111880844127402, "lon": 168.53286192316796, "alt_km": 918.4706137269923, "timestamp": "2025-12-11T07:02:24.014382+00:00", "meta": {"OBJECT_NAME": "FENGYUN 1C DEB", "OBJECT_ID": "1999-025CFR", "EPOCH": "2025-12-05T17:02:42.241632", "MEAN_MOTION": 14.0527359, "ECCENTRICITY": 0.00736647, "INCLINATION": 98.8158, "RA_OF_ASC_NODE": 337.7312, "ARG_OF_PERICENTER": 310.9952, "MEAN_ANOMALY": 48.486, "EPHEMERIS_TYPE": 0, "CLASSIFICATION_TYPE": "U", "NORAD_CAT_ID": 31766, "ELEMENT_SET_NO": 999, "REV_AT_EPOCH": 63987, "BSTAR": 0.00041011226, "MEAN_MOTION_DOT": 6.36e-06, "MEAN_MOTION_DDOT": 0}, "tle": {"line1": "1 31766U 99025CFR 25339.71021113  .00000636  00000+0  41011-3 0  9990", "line2": "2 31766  98.8158 337.7312 0073664 310.9952  48.4860 14.05273590639874"}}, "geometry": {"type": "Point", "coordinates": [168.53286192316796, 31.111880844127402]}}, {"type": "Feature", "properties": {"norad_id": 31767, "name": "FENGYUN 1C DEB", "group": "fengyun-1c-debris", "lat": 55.14920334304152, "lon": -152.08727044557924, "alt_km": 851.6833358706926, "timestamp": "2025-12-11T07:02:24.014392+00:00", "meta": {"OBJECT_NAME": "FENGYUN 1C DEB", "OBJECT_ID": "1999-025CFS", "EPOCH": "2025-12-10T08:18:04.226400", "MEAN_MOTION": 14.04952413, "ECCENTRICITY": 0.00419904, "INCLINATION": 98.8222, "RA_OF_ASC_NODE": 14.1046, "ARG_OF_PERICENTER": 76.597, "MEAN_ANOMALY": 297.4348, "EPHEMERIS_TYPE": 0, "CLASSIFICATION_TYPE": "U", "NORAD_CAT_ID": 31767, "ELEMENT_SET_NO": 999, "REV_AT_EPOCH": 94792, "BSTAR": 0.0001112108, "MEAN_MOTION_DOT": 1.38e-06, "MEAN_MOTION_DDOT": 0}, "tle": {"line1": "1 31767U 99025CFS 25344.34588225  .00000138  00000+0  11121-3 0  9994", "line2": "2 31767  98.8222  14.1046 0041990  76.5970 297.4348 14.04952413947921"}}, "geometry": {"type": "Point", "coordinates": [-152.08727044557924, 55.14920334304152]}}]}